[{"OBJECT_NAME":"KUWAITSAT-1","OBJECT_ID":"2023-001CY","EPOCH":"2026-03-09T18:03:29.196000","MEAN_MOTION":15.45271031,"ECCENTRICITY":0.00102534,"INCLINATION":97.3347,"RA_OF_ASC_NODE":138.265,"ARG_OF_PERICENTER":82.11,"MEAN_ANOMALY":278.1312,"EPHEMERIS_TYPE":0,"CLASSIFICATION_TYPE":"U","NORAD_CAT_ID":55103,"ELEMENT_SET_NO":999,"REV_AT_EPOCH":17721,"BSTAR":0.00049716234,"MEAN_MOTION_DOT":0.00023651,"MEAN_MOTION_DDOT":0},{"OBJECT_NAME":"SNIPE 2","OBJECT_ID":"2023-072C","EPOCH":"2026-03-09T11:21:04.371264","MEAN_MOTION":15.41694724,"ECCENTRICITY":0.00049327,"INCLINATION":97.5357,"RA_OF_ASC_NODE":273.9779,"ARG_OF_PERICENTER":6.2338,"MEAN_ANOMALY":353.8968,"EPHEMERIS_TYPE":0,"CLASSIFICATION_TYPE":"U","NORAD_CAT_ID":56745,"ELEMENT_SET_NO":999,"REV_AT_EPOCH":15485,"BSTAR":0.00072334045,"MEAN_MOTION_DOT":0.00030525,"MEAN_MOTION_DDOT":0}]
